[{"OBJECT_NAME":"YAOGAN-30 03A","OBJECT_ID":"2017-075A","EPOCH":"2026-03-09T16:17:14.366400","MEAN_MOTION":15.02242801,"ECCENTRICITY":0.00017413,"INCLINATION":34.9939,"RA_OF_ASC_NODE":156.9097,"ARG_OF_PERICENTER":176.2032,"MEAN_ANOMALY":183.8689,"EPHEMERIS_TYPE":0,"CLASSIFICATION_TYPE":"U","NORAD_CAT_ID":43028,"ELEMENT_SET_NO":999,"REV_AT_EPOCH":45227,"BSTAR":0.00031198587,"MEAN_MOTION_DOT":4.172e-5,"MEAN_MOTION_DDOT":0},{"OBJECT_NAME":"STARLINK-6283","OBJECT_ID":"2023-061AJ","EPOCH":"2026-03-09T09:58:56.047008","MEAN_MOTION":15.02521645,"ECCENTRICITY":0.00010296,"INCLINATION":43.0028,"RA_OF_ASC_NODE":185.9368,"ARG_OF_PERICENTER":250.257,"MEAN_ANOMALY":109.8161,"EPHEMERIS_TYPE":0,"CLASSIFICATION_TYPE":"U","NORAD_CAT_ID":56406,"ELEMENT_SET_NO":999,"REV_AT_EPOCH":15686,"BSTAR":2.9084906e-5,"MEAN_MOTION_DOT":1.89e-6,"MEAN_MOTION_DDOT":0}]
