YAOGAN-30 03A           
1 43028U 17075A   26068.67863850  .00004172  00000+0  31199-3 0  9991
2 43028  34.9939 156.9097 0001741 176.2032 183.8689 15.02242801452275
STARLINK-6283           
1 56406U 23061AJ  26068.41592647  .00000189  00000+0  29085-4 0  9998
2 56406  43.0028 185.9368 0001029 250.2570 109.8161 15.02521645156866
